[{"OBJECT_NAME":"STARLINK-1575","OBJECT_ID":"2020-062AA","EPOCH":"2026-03-10T00:00:02.999808","MEAN_MOTION":15.83669073,"ECCENTRICITY":0.00074285,"INCLINATION":53.0269,"RA_OF_ASC_NODE":261.1196,"ARG_OF_PERICENTER":181.3186,"MEAN_ANOMALY":250.1436,"EPHEMERIS_TYPE":0,"CLASSIFICATION_TYPE":"U","NORAD_CAT_ID":46349,"ELEMENT_SET_NO":999,"REV_AT_EPOCH":588,"BSTAR":0.0014920953,"MEAN_MOTION_DOT":0.00349176,"MEAN_MOTION_DDOT":0},{"OBJECT_NAME":"STARLINK-30187","OBJECT_ID":"2023-107S","EPOCH":"2026-03-09T22:00:01.999584","MEAN_MOTION":15.81935675,"ECCENTRICITY":0.00164325,"INCLINATION":42.9929,"RA_OF_ASC_NODE":303.0232,"ARG_OF_PERICENTER":259.4577,"MEAN_ANOMALY":8.6945,"EPHEMERIS_TYPE":0,"CLASSIFICATION_TYPE":"U","NORAD_CAT_ID":57473,"ELEMENT_SET_NO":999,"REV_AT_EPOCH":588,"BSTAR":0.0026192833,"MEAN_MOTION_DOT":0.00592286,"MEAN_MOTION_DDOT":0}]
